name,position,college,college_address,city,state,team_status,player_source,college_source
Derrick Harmon,DT,Oregon,2600 NW College Way,Bend,OR,Draft,https://en.wikipedia.org/wiki/2025_Pittsburgh_Steelers_season,https://databayou.com/usofa/colleges.html
Kaleb Johnson,RB,Iowa,112 Nicholas Dr,Marshalltown,IA,Draft,https://en.wikipedia.org/wiki/2025_Pittsburgh_Steelers_season,https://databayou.com/usofa/colleges.html
Jack Sawyer,DE,Ohio State,1328 Dover Rd,Wooster,OH,Draft,https://en.wikipedia.org/wiki/2025_Pittsburgh_Steelers_season,https://databayou.com/usofa/colleges.html
Yahya Black,DT,Iowa,112 Nicholas Dr,Marshalltown,IA,Draft,https://en.wikipedia.org/wiki/2025_Pittsburgh_Steelers_season,https://databayou.com/usofa/colleges.html
Will Howard,QB,Ohio State,1328 Dover Rd,Wooster,OH,Draft,https://en.wikipedia.org/wiki/2025_Pittsburgh_Steelers_season,https://databayou.com/usofa/colleges.html
Carson Bruener,LB,Washington,"2121 I Street, NW",Washington,DC,Draft,https://en.wikipedia.org/wiki/2025_Pittsburgh_Steelers_season,https://databayou.com/usofa/colleges.html
Donte Kent,CB,Central Michigan,106 Warriner Hall,Mount Pleasant,MI,Draft,https://en.wikipedia.org/wiki/2025_Pittsburgh_Steelers_season,https://databayou.com/usofa/colleges.html
Sebastian Castro,S,Iowa,112 Nicholas Dr,Marshalltown,IA,Free Agent,https://en.wikipedia.org/wiki/2025_Pittsburgh_Steelers_season,https://databayou.com/usofa/colleges.html
J. J. Galbreath,TE,South Dakota,501 E Saint Joseph St,Rapid City,SD,Free Agent,https://en.wikipedia.org/wiki/2025_Pittsburgh_Steelers_season,https://databayou.com/usofa/colleges.html
Ben Sauls,K,Pittsburgh,420 Boulevard of the Allies,Pittsburgh,PA,Free Agent,https://en.wikipedia.org/wiki/2025_Pittsburgh_Steelers_season,https://databayou.com/usofa/colleges.html
Roc Taylor,WR,Memphis,"5100 Poplar Avenue, Suite 132",Memphis,TN,Free Agent,https://en.wikipedia.org/wiki/2025_Pittsburgh_Steelers_season,https://databayou.com/usofa/colleges.html
DJ Thomas-Jones,FB,South Alabama,307 N University Blvd,Mobile,AL,Free Agent,https://en.wikipedia.org/wiki/2025_Pittsburgh_Steelers_season,https://databayou.com/usofa/colleges.html
Aiden Williams,OG,Minnesota Duluth,515 Darland Administration Bldg,Duluth,MN,Free Agent,https://en.wikipedia.org/wiki/2025_Pittsburgh_Steelers_season,https://databayou.com/usofa/colleges.html
Ke'Shawn Williams,WR,Indiana,1001 Bethel Circle,Mishawaka,IN,Free Agent,https://en.wikipedia.org/wiki/2025_Pittsburgh_Steelers_season,https://databayou.com/usofa/colleges.html
Max Hurleman,RB,Notre Dame,1500 Ralston Ave,Belmont,CA,Free Agent,https://en.wikipedia.org/wiki/2025_Pittsburgh_Steelers_season,https://databayou.com/usofa/colleges.html
Gareth Warren,OT,Lindenwood,209 S Kingshighway,Saint Charles,MO,Free Agent,https://en.wikipedia.org/wiki/2025_Pittsburgh_Steelers_season,https://databayou.com/usofa/colleges.html
Montana Lemonious-Craig,WR,Arizona,5631 E Speedway Blvd,Tucson,AZ,Free Agent,https://en.wikipedia.org/wiki/2025_Pittsburgh_Steelers_season,https://databayou.com/usofa/colleges.html
Will Howard,QB,Ohio State,1328 Dover Rd,Wooster,OH,Player,https://en.wikipedia.org/wiki/2025_Pittsburgh_Steelers_season,https://databayou.com/usofa/colleges.html
Aaron Rodgers,QB,California,1453 Mission Street,San Francisco,CA,Player,https://en.wikipedia.org/wiki/2025_Pittsburgh_Steelers_season,https://databayou.com/usofa/colleges.html
Mason Rudolph,QB,Oklahoma State,1301 W Main St,Wilburton,OK,Player,https://en.wikipedia.org/wiki/2025_Pittsburgh_Steelers_season,https://databayou.com/usofa/colleges.html
Kenneth Gainwell,QB,Memphis,"5100 Poplar Avenue, Suite 132",Memphis,TN,Player,https://en.wikipedia.org/wiki/2025_Pittsburgh_Steelers_season,https://databayou.com/usofa/colleges.html
Connor Heyward,FB,Michigan State,"648 N. Shaw Lane, Room 368",East Lansing,MI,Player,https://en.wikipedia.org/wiki/2025_Pittsburgh_Steelers_season,https://databayou.com/usofa/colleges.html
Kaleb Johnson,QB,Iowa,112 Nicholas Dr,Marshalltown,IA,Player,https://en.wikipedia.org/wiki/2025_Pittsburgh_Steelers_season,https://databayou.com/usofa/colleges.html
Jaylen Warren,QB,Oklahoma State,1301 W Main St,Wilburton,OK,Player,https://en.wikipedia.org/wiki/2025_Pittsburgh_Steelers_season,https://databayou.com/usofa/colleges.html
Calvin Austin,QB,Memphis,"5100 Poplar Avenue, Suite 132",Memphis,TN,Player,https://en.wikipedia.org/wiki/2025_Pittsburgh_Steelers_season,https://databayou.com/usofa/colleges.html
DK Metcalf,QB,Mississippi,1512 Kemper Street,Scooba,MS,Player,https://en.wikipedia.org/wiki/2025_Pittsburgh_Steelers_season,https://databayou.com/usofa/colleges.html
Scotty Miller,QB,Bowling Green,1901 Russellville Road,Bowling Green,KY,Player,https://en.wikipedia.org/wiki/2025_Pittsburgh_Steelers_season,https://databayou.com/usofa/colleges.html
Ben Skowronek,QB,Notre Dame,1500 Ralston Ave,Belmont,CA,Player,https://en.wikipedia.org/wiki/2025_Pittsburgh_Steelers_season,https://databayou.com/usofa/colleges.html
Ke'Shawn Williams,RS,Indiana,1001 Bethel Circle,Mishawaka,IN,Player,https://en.wikipedia.org/wiki/2025_Pittsburgh_Steelers_season,https://databayou.com/usofa/colleges.html
Roman Wilson,QB,Michigan,325 E US Hwy 20,Michigan City,IN,Player,https://en.wikipedia.org/wiki/2025_Pittsburgh_Steelers_season,https://databayou.com/usofa/colleges.html
Pat Freiermuth,QB,Penn State,4701 College Drive,Erie,PA,Player,https://en.wikipedia.org/wiki/2025_Pittsburgh_Steelers_season,https://databayou.com/usofa/colleges.html
Jonnu Smith,QB,Florida International,11200 S. W. 8 Street,Miami,FL,Player,https://en.wikipedia.org/wiki/2025_Pittsburgh_Steelers_season,https://databayou.com/usofa/colleges.html
Darnell Washington,QB,Georgia,900 Flat Shoals Road SE,Conyers,GA,Player,https://en.wikipedia.org/wiki/2025_Pittsburgh_Steelers_season,https://databayou.com/usofa/colleges.html
Calvin Anderson,LT,Texas,6200 West Central Texas Expressway,Killeen,TX,Player,https://en.wikipedia.org/wiki/2025_Pittsburgh_Steelers_season,https://databayou.com/usofa/colleges.html
Spencer Anderson,LG,Maryland,12401 Willowbrook Rd SE,Cumberland,MD,Player,https://en.wikipedia.org/wiki/2025_Pittsburgh_Steelers_season,https://databayou.com/usofa/colleges.html
Troy Fautanu,RT,Washington,"2121 I Street, NW",Washington,DC,Player,https://en.wikipedia.org/wiki/2025_Pittsburgh_Steelers_season,https://databayou.com/usofa/colleges.html
Zach Frazier,C,West Virginia,"369 College Road       US Rt. 19, 6 Miles S. Claypool Hill",Richlands,VA,Player,https://en.wikipedia.org/wiki/2025_Pittsburgh_Steelers_season,https://databayou.com/usofa/colleges.html
Broderick Jones,LT,Georgia,900 Flat Shoals Road SE,Conyers,GA,Player,https://en.wikipedia.org/wiki/2025_Pittsburgh_Steelers_season,https://databayou.com/usofa/colleges.html
Ryan McCollum,C,Texas A&M,One University Way,San Antonio,TX,Player,https://en.wikipedia.org/wiki/2025_Pittsburgh_Steelers_season,https://databayou.com/usofa/colleges.html
Mason McCormick,RG,South Dakota State,Administration Lane,Brookings,SD,Player,https://en.wikipedia.org/wiki/2025_Pittsburgh_Steelers_season,https://databayou.com/usofa/colleges.html
Andrus Peat,RT,Stanford,450 Jane Stanford Way,Stanford,CA,Player,https://en.wikipedia.org/wiki/2025_Pittsburgh_Steelers_season,https://databayou.com/usofa/colleges.html
Isaac Seumalo,LG,Oregon State,1500 S.W. Jefferson Avenue,Corvallis,OR,Player,https://en.wikipedia.org/wiki/2025_Pittsburgh_Steelers_season,https://databayou.com/usofa/colleges.html
Keeanu Benton,NT,Wisconsin,12800 N Lake Shore Dr,Mequon,WI,Player,https://en.wikipedia.org/wiki/2025_Pittsburgh_Steelers_season,https://databayou.com/usofa/colleges.html
Yahya Black,DE,Iowa,112 Nicholas Dr,Marshalltown,IA,Player,https://en.wikipedia.org/wiki/2025_Pittsburgh_Steelers_season,https://databayou.com/usofa/colleges.html
Derrick Harmon,DE,Oregon,2600 NW College Way,Bend,OR,Player,https://en.wikipedia.org/wiki/2025_Pittsburgh_Steelers_season,https://databayou.com/usofa/colleges.html
Cameron Heyward,DT,Ohio State,1328 Dover Rd,Wooster,OH,Player,https://en.wikipedia.org/wiki/2025_Pittsburgh_Steelers_season,https://databayou.com/usofa/colleges.html
Logan Lee,NT,Iowa,112 Nicholas Dr,Marshalltown,IA,Player,https://en.wikipedia.org/wiki/2025_Pittsburgh_Steelers_season,https://databayou.com/usofa/colleges.html
Esezi Otomewo,DT,Minnesota,1414 College Way,Fergus Falls,MN,Player,https://en.wikipedia.org/wiki/2025_Pittsburgh_Steelers_season,https://databayou.com/usofa/colleges.html
Carson Bruener,ILB,Washington,"2121 I Street, NW",Washington,DC,Player,https://en.wikipedia.org/wiki/2025_Pittsburgh_Steelers_season,https://databayou.com/usofa/colleges.html
Malik Harrison,ILB,Ohio State,1328 Dover Rd,Wooster,OH,Player,https://en.wikipedia.org/wiki/2025_Pittsburgh_Steelers_season,https://databayou.com/usofa/colleges.html
Nick Herbig,OLB,Wisconsin,12800 N Lake Shore Dr,Mequon,WI,Player,https://en.wikipedia.org/wiki/2025_Pittsburgh_Steelers_season,https://databayou.com/usofa/colleges.html
Alex Highsmith,OLB,Charlotte,18150 Murdock Circle,Port Charlotte,FL,Player,https://en.wikipedia.org/wiki/2025_Pittsburgh_Steelers_season,https://databayou.com/usofa/colleges.html
Cole Holcomb,ILB,North Carolina,1601 E Market  St,Greensboro,NC,Player,https://en.wikipedia.org/wiki/2025_Pittsburgh_Steelers_season,https://databayou.com/usofa/colleges.html
Jack Sawyer,OLB,Ohio State,1328 Dover Rd,Wooster,OH,Player,https://en.wikipedia.org/wiki/2025_Pittsburgh_Steelers_season,https://databayou.com/usofa/colleges.html
T. J. Watt,OLB,Wisconsin,12800 N Lake Shore Dr,Mequon,WI,Player,https://en.wikipedia.org/wiki/2025_Pittsburgh_Steelers_season,https://databayou.com/usofa/colleges.html
Payton Wilson,ILB,N.C. State,1141 Wallace Drive,Dothan,AL,Player,https://en.wikipedia.org/wiki/2025_Pittsburgh_Steelers_season,https://databayou.com/usofa/colleges.html
Sebastian Castro,FS,Iowa,112 Nicholas Dr,Marshalltown,IA,Player,https://en.wikipedia.org/wiki/2025_Pittsburgh_Steelers_season,https://databayou.com/usofa/colleges.html
Chuck Clark,SS,Virginia Tech,2 Riverside Circle,Roanoke,VA,Player,https://en.wikipedia.org/wiki/2025_Pittsburgh_Steelers_season,https://databayou.com/usofa/colleges.html
Kyle Dugger,SS,Lenoir Rhyne,625 7th Avenue NE,Hickory,NC,Player,https://en.wikipedia.org/wiki/2025_Pittsburgh_Steelers_season,https://databayou.com/usofa/colleges.html
Brandin Echols,CB,Kentucky,1845 Loop Dr,Bowling Green,KY,Player,https://en.wikipedia.org/wiki/2025_Pittsburgh_Steelers_season,https://databayou.com/usofa/colleges.html
Jabrill Peppers,SS,Michigan,325 E US Hwy 20,Michigan City,IN,Player,https://en.wikipedia.org/wiki/2025_Pittsburgh_Steelers_season,https://databayou.com/usofa/colleges.html
James Pierre,CB,Florida Atlantic,777 Glades Rd,Boca Raton,FL,Player,https://en.wikipedia.org/wiki/2025_Pittsburgh_Steelers_season,https://databayou.com/usofa/colleges.html
Joey Porter,CB,Penn State,4701 College Drive,Erie,PA,Player,https://en.wikipedia.org/wiki/2025_Pittsburgh_Steelers_season,https://databayou.com/usofa/colleges.html
Jalen Ramsey,FS,Florida State,1519 Clearlake Rd,Cocoa,FL,Player,https://en.wikipedia.org/wiki/2025_Pittsburgh_Steelers_season,https://databayou.com/usofa/colleges.html
Darius Slay,CB,Mississippi State,3825 Ridgewood Rd,Jackson,MS,Player,https://en.wikipedia.org/wiki/2025_Pittsburgh_Steelers_season,https://databayou.com/usofa/colleges.html
Chris Boswell,K,Rice,3038 Evans Mill Rd,Lithonia,GA,Player,https://en.wikipedia.org/wiki/2025_Pittsburgh_Steelers_season,https://databayou.com/usofa/colleges.html
Christian Kuntz,LS,Duquesne,Administration Bldg 600 Forbes Ave,Pittsburgh,PA,Player,https://en.wikipedia.org/wiki/2025_Pittsburgh_Steelers_season,https://databayou.com/usofa/colleges.html
Corliss Waitman,P,South Alabama,307 N University Blvd,Mobile,AL,Player,https://en.wikipedia.org/wiki/2025_Pittsburgh_Steelers_season,https://databayou.com/usofa/colleges.html
Daryl Porter,CB,Penn State,4701 College Drive,Erie,PA,Player,https://en.wikipedia.org/wiki/2025_Pittsburgh_Steelers_season,https://databayou.com/usofa/colleges.html
Mark Robinson,ILB,Mississippi,1512 Kemper Street,Scooba,MS,Player,https://en.wikipedia.org/wiki/2025_Pittsburgh_Steelers_season,https://databayou.com/usofa/colleges.html
